     2.10           G: GLONASS NAV DATA                     RINEX VERSION / TYPE
teqc  2015Jun23                         20210805 01:25:48UTCPGM / RUN BY / DATE
Linux 2.4.21-27.ELsmp|Opteron|gcc -static|Linux x86_64|=+   COMMENT
  2021     7    12    1.676380634308D-08                    CORR TO SYSTEM TIME
                                                            END OF HEADER
18 21  7 13 10 45  0.0 8.326396346092D-05 9.094947017729D-13 3.780000000000D+04
    1.160572265625D+03-1.467885971069D-01 3.725290298462D-09 0.000000000000D+00
    2.220383154297D+04 1.724557876587D+00 2.793967723846D-09-3.000000000000D+00
    1.255341699219D+04-3.033858299255D+00 0.000000000000D+00 0.000000000000D+00
24 21  7 13 10 45  0.0 5.027279257774D-05 1.818989403546D-12 3.780000000000D+04
   -1.174207519531D+04 6.483592987061D-01 0.000000000000D+00 0.000000000000D+00
    1.268172607422D+04-2.489292144775D+00-1.862645149231D-09 2.000000000000D+00
   -1.874419677734D+04-2.090790748596D+00 9.313225746155D-10 0.000000000000D+00
 4 21  7 13 11 15  0.0 9.559281170368D-05 1.818989403546D-12 3.960000000000D+04
    1.226934375000D+04-1.622588157654D+00 3.725290298462D-09 0.000000000000D+00
    1.663498095703D+04-1.254071235657D+00 2.793967723846D-09 6.000000000000D+00
    1.497920996094D+04 2.726367950439D+00 0.000000000000D+00 0.000000000000D+00
13 21  7 13 11 15  0.0-5.764886736870D-05-0.000000000000D+00 3.960000000000D+04
   -2.321935693359D+04 6.149978637695D-01 0.000000000000D+00 0.000000000000D+00
    9.572022460938D+03-1.453704833984D-01-1.862645149231D-09-2.000000000000D+00
    4.468772949219D+03 3.498358726501D+00-9.313225746155D-10 0.000000000000D+00
14 21  7 13 11 15  0.0 6.641168147326D-05 0.000000000000D+00 3.960000000000D+04
   -1.562672558594D+04-1.582180976868D+00 0.000000000000D+00 0.000000000000D+00
    1.510458447266D+04 9.274082183838D-01-1.862645149231D-09-7.000000000000D+00
   -1.335377636719D+04 2.894768714905D+00 0.000000000000D+00 0.000000000000D+00
17 21  7 13 11 15  0.0 4.406906664371D-04 2.728484105319D-12 3.960000000000D+04
   -6.167509765625D+03 2.921924591064D-01 1.862645149231D-09 0.000000000000D+00
    2.251918554688D+04-1.386329650879D+00-0.000000000000D+00 4.000000000000D+00
   -1.022166845703D+04-3.233899116516D+00 1.862645149231D-09 0.000000000000D+00
18 21  7 13 11 15  0.0 8.326675742865D-05 9.094947017729D-13 3.960000000000D+04
    1.210334472656D+03 1.668596267700D-01 3.725290298462D-09 0.000000000000D+00
    2.461606347656D+04 9.284400939941D-01 9.313225746155D-10-3.000000000000D+00
    6.678932128906D+03-3.451081275940D+00 9.313225746155D-10 0.000000000000D+00
24 21  7 13 11 15  0.0 5.027558654547D-05 1.818989403546D-12 3.960000000000D+04
   -1.085983886719D+04 3.060617446899D-01-9.313225746155D-10 0.000000000000D+00
    7.734741210938D+03-2.964466094971D+00-1.862645149231D-09 2.000000000000D+00
   -2.173339013672D+04-1.208973884583D+00 9.313225746155D-10 0.000000000000D+00
 3 21  7 13 11 15  0.0 3.942660987377D-05 9.094947017729D-13 3.966000000000D+04
   -3.813976074219D+03-2.596127510071D+00 2.793967723846D-09 0.000000000000D+00
    1.055647949219D+04-1.748481750488D+00 9.313225746155D-10 5.000000000000D+00
    2.295338183594D+04 3.688354492188D-01-1.862645149231D-09 0.000000000000D+00
15 21  7 13 11 15  0.0 1.027090474963D-04-9.094947017729D-13 3.987000000000D+04
    8.929301757812D+02-2.767539024353D+00-0.000000000000D+00 0.000000000000D+00
    1.166148046875D+04 1.412077903748D+00-9.313225746155D-10 0.000000000000D+00
   -2.264412890625D+04 6.168241500854D-01 2.793967723846D-09 0.000000000000D+00
 4 21  7 13 11 45  0.0 9.559653699398D-05 1.818989403546D-12 4.140000000000D+04
    8.709466308594D+03-2.312854766846D+00 3.725290298462D-09 0.000000000000D+00
    1.433847216797D+04-1.254376411438D+00 1.862645149231D-09 6.000000000000D+00
    1.924575292969D+04 1.983604431152D+00-0.000000000000D+00 0.000000000000D+00
13 21  7 13 11 45  0.0-5.764979869127D-05-0.000000000000D+00 4.140000000000D+04
   -2.149917675781D+04 1.261956214905D+00 0.000000000000D+00 0.000000000000D+00
    8.825130371094D+03-7.087240219116D-01-1.862645149231D-09-2.000000000000D+00
    1.051167041016D+04 3.172352790833D+00-1.862645149231D-09 0.000000000000D+00
14 21  7 13 11 45  0.0 6.641261279583D-05 0.000000000000D+00 4.140000000000D+04
   -1.776952783203D+04-7.964839935303D-01-0.000000000000D+00 0.000000000000D+00
    1.661258251953D+04 7.052459716797D-01-1.862645149231D-09-7.000000000000D+00
   -7.694321777344D+03 3.352650642395D+00-0.000000000000D+00 0.000000000000D+00
15 21  7 13 11 45  0.0 1.027081161737D-04-9.094947017729D-13 4.140000000000D+04
   -3.711030761719D+03-2.311835289001D+00-0.000000000000D+00 0.000000000000D+00
    1.444419531250D+04 1.644164085388D+00-9.313225746155D-10 0.000000000000D+00
   -2.067082324219D+04 1.561426162720D+00 1.862645149231D-09 0.000000000000D+00
17 21  7 13 11 45  0.0 4.406962543726D-04 2.728484105319D-12 4.140000000000D+04
   -5.849158691406D+03 2.652072906494D-02 0.000000000000D+00 0.000000000000D+00
    1.931633056641D+04-2.142608642578D+00-9.313225746155D-10 4.000000000000D+00
   -1.557122949219D+04-2.671419143677D+00 1.862645149231D-09 0.000000000000D+00
18 21  7 13 11 45  0.0 8.326955139637D-05 9.094947017729D-13 4.140000000000D+04
    1.619670410156D+03 2.459840774536D-01 2.793967723846D-09 0.000000000000D+00
    2.548111181641D+04 2.438926696777D-02 0.000000000000D+00-3.000000000000D+00
    2.895688476562D+02-3.602250099182D+00 9.313225746155D-10 0.000000000000D+00
19 21  7 13 11 45  0.0-1.513473689556D-04-9.094947017729D-13 4.170000000000D+04
    7.454353027344D+03 2.618045806885D-01 4.656612873077D-09 0.000000000000D+00
    1.895407666016D+04 2.099284172058D+00 1.862645149231D-09 3.000000000000D+00
    1.534448632812D+04-2.719486236572D+00 0.000000000000D+00 0.000000000000D+00
15 21  7 13 12 15  0.0 1.027081161737D-04-0.000000000000D+00 4.320000000000D+04
   -7.327358398438D+03-1.686401367188D+00-0.000000000000D+00 0.000000000000D+00
    1.743418896484D+04 1.633799552917D+00-1.862645149231D-09 0.000000000000D+00
   -1.709594921875D+04 2.384757041931D+00 9.313225746155D-10 0.000000000000D+00
14 21  7 13 12 15  0.0 6.641354411840D-05 0.000000000000D+00 4.320000000000D+04
   -1.852011328125D+04-5.381965637207D-02-0.000000000000D+00 0.000000000000D+00
    1.749611572266D+04 2.389631271362D-01-1.862645149231D-09-7.000000000000D+00
   -1.440202636719D+03 3.551263809204D+00-9.313225746155D-10 0.000000000000D+00
17 21  7 13 12 15  0.0 4.407018423080D-04 2.728484105319D-12 4.320000000000D+04
   -6.175853515625D+03-4.110860824585D-01-9.313225746155D-10 0.000000000000D+00
    1.494060937500D+04-2.675367355347D+00-1.862645149231D-09 4.000000000000D+00
   -1.971450537109D+04-1.902359008789D+00 1.862645149231D-09 0.000000000000D+00
18 21  7 13 12 15  0.0 8.327234536409D-05 9.094947017729D-13 4.320000000000D+04
    1.943640136719D+03 7.295417785645D-02 1.862645149231D-09 0.000000000000D+00
    2.471033251953D+04-8.689508438110D-01-9.313225746155D-10-3.000000000000D+00
   -6.122098632812D+03-3.475685119629D+00 1.862645149231D-09 0.000000000000D+00
19 21  7 13 12 15  0.0-1.513501629233D-04-9.094947017729D-13 4.320000000000D+04
    8.130253906250D+03 4.505786895752D-01 4.656612873077D-09 0.000000000000D+00
    2.204198974609D+04 1.306071281433D+00 9.313225746155D-10 3.000000000000D+00
    9.918983398438D+03-3.269667625427D+00 0.000000000000D+00 0.000000000000D+00
13 21  7 13 12 15  0.0-5.765166133642D-05-0.000000000000D+00 4.323000000000D+04
   -1.881981591797D+04 1.671110153198D+00-0.000000000000D+00 0.000000000000D+00
    6.962273437500D+03-1.368611335754D+00-9.313225746155D-10-2.000000000000D+00
    1.574159033203D+04 2.600902557373D+00-2.793967723846D-09 0.000000000000D+00
 4 21  7 13 12 15  0.0 9.559188038111D-05 1.818989403546D-12 4.332000000000D+04
    4.046112792969D+03-2.832187652588D+00 3.725290298462D-09 0.000000000000D+00
    1.226148583984D+04-1.018927574158D+00 9.313225746155D-10 6.000000000000D+00
    2.202841894531D+04 1.088285446167D+00-9.313225746155D-10 0.000000000000D+00
15 21  7 13 12 45  0.0 1.027071848512D-04-0.000000000000D+00 4.500000000000D+04
   -9.743801269531D+03-9.973726272583D-01-0.000000000000D+00 0.000000000000D+00
    2.016148779297D+04 1.351005554199D+00-1.862645149231D-09 0.000000000000D+00
   -1.219700976562D+04 3.023055076599D+00 0.000000000000D+00 0.000000000000D+00
14 21  7 13 12 45  0.0 6.641447544098D-05 0.000000000000D+00 4.500000000000D+04
   -1.805112158203D+04 5.433778762817D-01-0.000000000000D+00 0.000000000000D+00
    1.735755517578D+04-4.182929992676D-01-1.862645149231D-09-7.000000000000D+00
    4.925198730469D+03 3.475541114807D+00-9.313225746155D-10 0.000000000000D+00
17 21  7 13 12 45  0.0 4.407074302435D-04 2.728484105319D-12 4.500000000000D+04
   -7.376062500000D+03-9.264717102051D-01-1.862645149231D-09 0.000000000000D+00
    9.859145507812D+03-2.919417381287D+00-1.862645149231D-09 4.000000000000D+00
   -2.233147216797D+04-9.865932464600D-01 9.313225746155D-10 0.000000000000D+00
18 21  7 13 12 45  0.0 8.327513933182D-05 9.094947017729D-13 4.500000000000D+04
    1.747354980469D+03-3.235778808594D-01 9.313225746155D-10 0.000000000000D+00
    2.242969531250D+04-1.634983062744D+00-9.313225746155D-10-3.000000000000D+00
   -1.206159375000D+04-3.080972671509D+00 1.862645149231D-09 0.000000000000D+00
19 21  7 13 12 45  0.0-1.513529568911D-04-9.094947017729D-13 4.500000000000D+04
    8.925848144531D+03 3.899116516113D-01 3.725290298462D-09 0.000000000000D+00
    2.359800048828D+04 4.167566299438D-01-0.000000000000D+00 3.000000000000D+00
    3.725909179688D+03-3.566801071167D+00 9.313225746155D-10 0.000000000000D+00
 4 21  7 13 12 45  0.0 9.559560567141D-05 1.818989403546D-12 4.503000000000D+04
   -1.332638671875D+03-3.096513748169D+00 2.793967723846D-09 0.000000000000D+00
    1.076994384766D+04-6.183834075928D-01-0.000000000000D+00 6.000000000000D+00
    2.311324902344D+04 1.092958450317D-01-1.862645149231D-09 0.000000000000D+00
